{
  "type": "FeatureCollection",
  "features": [
    {
      "type": "Feature",
      "properties": {
        "norad_id": 2807,
        "name": "OPS 7218 (TRANSIT 16)",
        "group": "nnss",
        "lat": 77.87766390695778,
        "lon": 172.81194830390456,
        "alt_km": 1049.7730299999603,
        "timestamp": "2025-12-03T04:52:29.905486+00:00",
        "meta_object_name": "OPS 7218 (TRANSIT 16)",
        "meta_object_id": "1967-048A",
        "meta_epoch": "2025-12-02T20:20:05.793792",
        "meta_mean_motion": 13.50719263,
        "meta_eccentricity": 0.002143,
        "meta_inclination": 89.6736,
        "meta_ra_of_asc_node": 354.3444,
        "meta_arg_of_pericenter": 140.7398,
        "meta_mean_anomaly": 32.258,
        "meta_ephemeris_type": 0,
        "meta_classification_type": "U",
        "meta_norad_cat_id": 2807,
        "meta_element_set_no": 999,
        "meta_rev_at_epoch": 88142,
        "meta_bstar": 0.00020941,
        "meta_mean_motion_dot": 1.45e-06,
        "meta_mean_motion_ddot": 0,
        "tle_line1": "1 02807U 67048A   25336.84728928  .00000145  00000+0  20941-3 0  9997",
        "tle_line2": "2 02807  89.6736 354.3444 0021430 140.7398  32.2580 13.50719263881427"
      },
      "geometry": {
        "type": "Point",
        "coordinates": [
          172.81194830390456,
          77.87766390695778
        ]
      }
    },
    {
      "type": "Feature",
      "properties": {
        "norad_id": 2965,
        "name": "OPS 4947 (TRANSIT 17)",
        "group": "nnss",
        "lat": 73.1345319947693,
        "lon": 27.636623613926453,
        "alt_km": 1086.195591317568,
        "timestamp": "2025-12-03T04:52:29.905507+00:00",
        "meta_object_name": "OPS 4947 (TRANSIT 17)",
        "meta_object_id": "1967-092A",
        "meta_epoch": "2025-12-02T16:41:48.008256",
        "meta_mean_motion": 13.53449741,
        "meta_eccentricity": 0.0045758,
        "meta_inclination": 89.2507,
        "meta_ra_of_asc_node": 25.2012,
        "meta_arg_of_pericenter": 264.7144,
        "meta_mean_anomaly": 217.4402,
        "meta_ephemeris_type": 0,
        "meta_classification_type": "U",
        "meta_norad_cat_id": 2965,
        "meta_element_set_no": 999,
        "meta_rev_at_epoch": 86961,
        "meta_bstar": 0.0002202,
        "meta_mean_motion_dot": 1.6e-06,
        "meta_mean_motion_ddot": 0,
        "tle_line1": "1 02965U 67092A   25336.69569454  .00000160  00000+0  22020-3 0  9998",
        "tle_line2": "2 02965  89.2507  25.2012 0045758 264.7144 217.4402 13.53449741869615"
      },
      "geometry": {
        "type": "Point",
        "coordinates": [
          27.636623613926453,
          73.1345319947693
        ]
      }
    },
    {
      "type": "Feature",
      "properties": {
        "norad_id": 3133,
        "name": "OPS 7034 (TRANSIT 18)",
        "group": "nnss",
        "lat": -72.18240344503916,
        "lon": -86.30392282636183,
        "alt_km": 1074.427098967707,
        "timestamp": "2025-12-03T04:52:29.905521+00:00",
        "meta_object_name": "OPS 7034 (TRANSIT 18)",
        "meta_object_id": "1968-012A",
        "meta_epoch": "2025-12-02T20:38:59.970048",
        "meta_mean_motion": 13.51562273,
        "meta_eccentricity": 0.0072931,
        "meta_inclination": 90.0269,
        "meta_ra_of_asc_node": 273.6114,
        "meta_arg_of_pericenter": 197.8968,
        "meta_mean_anomaly": 222.6307,
        "meta_ephemeris_type": 0,
        "meta_classification_type": "U",
        "meta_norad_cat_id": 3133,
        "meta_element_set_no": 999,
        "meta_rev_at_epoch": 56785,
        "meta_bstar": 0.00016115,
        "meta_mean_motion_dot": 1.16e-06,
        "meta_mean_motion_ddot": 0,
        "tle_line1": "1 03133U 68012A   25336.86041632  .00000116  00000+0  16115-3 0  9990",
        "tle_line2": "2 03133  90.0269 273.6114 0072931 197.8968 222.6307 13.51562273567850"
      },
      "geometry": {
        "type": "Point",
        "coordinates": [
          -86.30392282636183,
          -72.18240344503916
        ]
      }
    },
    {
      "type": "Feature",
      "properties": {
        "norad_id": 4507,
        "name": "NNSS 19 (TRANSIT 19)",
        "group": "nnss",
        "lat": -85.49788508152191,
        "lon": 54.45587716871544,
        "alt_km": 1001.6261227274908,
        "timestamp": "2025-12-03T04:52:29.905533+00:00",
        "meta_object_name": "NNSS 19 (TRANSIT 19)",
        "meta_object_id": "1970-067A",
        "meta_epoch": "2025-12-02T18:39:56.229696",
        "meta_mean_motion": 13.51310894,
        "meta_eccentricity": 0.0171235,
        "meta_inclination": 90.0056,
        "meta_ra_of_asc_node": 234.5268,
        "meta_arg_of_pericenter": 322.4428,
        "meta_mean_anomaly": 36.486,
        "meta_ephemeris_type": 0,
        "meta_classification_type": "U",
        "meta_norad_cat_id": 4507,
        "meta_element_set_no": 999,
        "meta_rev_at_epoch": 72087,
        "meta_bstar": 0.00025499,
        "meta_mean_motion_dot": 1.89e-06,
        "meta_mean_motion_ddot": 0,
        "tle_line1": "1 04507U 70067A   25336.77773414  .00000189  00000+0  25499-3 0  9994",
        "tle_line2": "2 04507  90.0056 234.5268 0171235 322.4428  36.4860 13.51310894720878"
      },
      "geometry": {
        "type": "Point",
        "coordinates": [
          54.45587716871544,
          -85.49788508152191
        ]
      }
    },
    {
      "type": "Feature",
      "properties": {
        "norad_id": 6909,
        "name": "NNSS 20 (TRANSIT 20)",
        "group": "nnss",
        "lat": 8.152754081698093,
        "lon": -104.78213673800457,
        "alt_km": 1011.1586809382497,
        "timestamp": "2025-12-03T04:52:29.905544+00:00",
        "meta_object_name": "NNSS 20 (TRANSIT 20)",
        "meta_object_id": "1973-081A",
        "meta_epoch": "2025-12-02T20:04:46.934976",
        "meta_mean_motion": 13.71427347,
        "meta_eccentricity": 0.0156458,
        "meta_inclination": 89.8556,
        "meta_ra_of_asc_node": 255.2027,
        "meta_arg_of_pericenter": 107.6448,
        "meta_mean_anomaly": 254.1868,
        "meta_ephemeris_type": 0,
        "meta_classification_type": "U",
        "meta_norad_cat_id": 6909,
        "meta_element_set_no": 999,
        "meta_rev_at_epoch": 80225,
        "meta_bstar": 0.00026148,
        "meta_mean_motion_dot": 2.68e-06,
        "meta_mean_motion_ddot": 0,
        "tle_line1": "1 06909U 73081A   25336.83665434  .00000268  00000+0  26148-3 0  9990",
        "tle_line2": "2 06909  89.8556 255.2027 0156458 107.6448 254.1868 13.71427347802259"
      },
      "geometry": {
        "type": "Point",
        "coordinates": [
          -104.78213673800457,
          8.152754081698093
        ]
      }
    },
    {
      "type": "Feature",
      "properties": {
        "norad_id": 10457,
        "name": "TRANSAT",
        "group": "nnss",
        "lat": -6.578365057266785,
        "lon": 78.89396220056989,
        "alt_km": 1093.0160896678262,
        "timestamp": "2025-12-03T04:52:29.905554+00:00",
        "meta_object_name": "TRANSAT",
        "meta_object_id": "1977-106A",
        "meta_epoch": "2025-12-02T20:34:25.027104",
        "meta_mean_motion": 13.48941071,
        "meta_eccentricity": 0.0024509,
        "meta_inclination": 89.6482,
        "meta_ra_of_asc_node": 78.9468,
        "meta_arg_of_pericenter": 218.6876,
        "meta_mean_anomaly": 255.9454,
        "meta_ephemeris_type": 0,
        "meta_classification_type": "U",
        "meta_norad_cat_id": 10457,
        "meta_element_set_no": 999,
        "meta_rev_at_epoch": 36610,
        "meta_bstar": 0.00012256,
        "meta_mean_motion_dot": 8.7e-07,
        "meta_mean_motion_ddot": 0,
        "tle_line1": "1 10457U 77106A   25336.85723411  .00000087  00000+0  12256-3 0  9991",
        "tle_line2": "2 10457  89.6482  78.9468 0024509 218.6876 255.9454 13.48941071366104"
      },
      "geometry": {
        "type": "Point",
        "coordinates": [
          78.89396220056989,
          -6.578365057266785
        ]
      }
    },
    {
      "type": "Feature",
      "properties": {
        "norad_id": 12458,
        "name": "NOVA 1",
        "group": "nnss",
        "lat": 54.557776508765706,
        "lon": 91.72769130782244,
        "alt_km": 1163.6098309839854,
        "timestamp": "2025-12-03T04:52:29.905578+00:00",
        "meta_object_name": "NOVA 1",
        "meta_object_id": "1981-044A",
        "meta_epoch": "2025-12-02T20:07:51.927744",
        "meta_mean_motion": 13.23276762,
        "meta_eccentricity": 0.0015588,
        "meta_inclination": 89.8522,
        "meta_ra_of_asc_node": 91.5251,
        "meta_arg_of_pericenter": 128.3764,
        "meta_mean_anomaly": 351.8313,
        "meta_ephemeris_type": 0,
        "meta_classification_type": "U",
        "meta_norad_cat_id": 12458,
        "meta_element_set_no": 999,
        "meta_rev_at_epoch": 15055,
        "meta_bstar": 0.00014528,
        "meta_mean_motion_dot": 7.1e-07,
        "meta_mean_motion_ddot": 0,
        "tle_line1": "1 12458U 81044A   25336.83879546  .00000071  00000+0  14528-3 0  9996",
        "tle_line2": "2 12458  89.8522  91.5251 0015588 128.3764 351.8313 13.23276762150556"
      },
      "geometry": {
        "type": "Point",
        "coordinates": [
          91.72769130782244,
          54.557776508765706
        ]
      }
    }
  ]
}